TEVEL2-1                
1 63217U 25052H   26068.64782323  .00020683  00000+0  70600-3 0  9994
2 63217  97.3991 324.7682 0004767 104.8919 255.2849 15.30341923 54855
STARLINK-33747          
1 63444U 25069M   26068.47605183  .00026340  00000+0  89821-3 0  9994
2 63444  53.1586 143.3523 0001302  87.4041 272.7109 15.30202464 53320
