[{"OBJECT_NAME":"TEVEL2-1","OBJECT_ID":"2025-052H","EPOCH":"2026-03-09T15:32:51.927072","MEAN_MOTION":15.30341923,"ECCENTRICITY":0.0004767,"INCLINATION":97.3991,"RA_OF_ASC_NODE":324.7682,"ARG_OF_PERICENTER":104.8919,"MEAN_ANOMALY":255.2849,"EPHEMERIS_TYPE":0,"CLASSIFICATION_TYPE":"U","NORAD_CAT_ID":63217,"ELEMENT_SET_NO":999,"REV_AT_EPOCH":5485,"BSTAR":0.000706,"MEAN_MOTION_DOT":0.00020683,"MEAN_MOTION_DDOT":0},{"OBJECT_NAME":"STARLINK-33747","OBJECT_ID":"2025-069M","EPOCH":"2026-03-09T11:25:30.878112","MEAN_MOTION":15.30202464,"ECCENTRICITY":0.00013025,"INCLINATION":53.1586,"RA_OF_ASC_NODE":143.3523,"ARG_OF_PERICENTER":87.4041,"MEAN_ANOMALY":272.7109,"EPHEMERIS_TYPE":0,"CLASSIFICATION_TYPE":"U","NORAD_CAT_ID":63444,"ELEMENT_SET_NO":999,"REV_AT_EPOCH":5332,"BSTAR":0.00089821112,"MEAN_MOTION_DOT":0.0002634,"MEAN_MOTION_DDOT":0}]
